start=new Date('2022-01-09T00:00:00.000Z').valueOf();
sats=[{"MEAN_MOTION_DOT":"0.00001588","REV_AT_EPOCH":"3921","LAUNCH_DATE":"2021-05-04","ECCENTRICITY":"0.00018040","RA_OF_ASC_NODE":"331.4625","CLASSIFICATION_TYPE":"U","OBJECT_NAME":"STARLINK-2590","FILE":"3267276","ARG_OF_PERICENTER":"63.8148","OBJECT_ID":"2021-038AW","RCS_SIZE":"LARGE","PERIOD":"95.592","REF_FRAME":"TEME","MEAN_ANOMALY":"296.3027","EPOCH":"2022-01-08T06:54:34.414848","ELEMENT_SET_NO":"999","APOAPSIS":"548.472","EPHEMERIS_TYPE":"0","COUNTRY_CODE":"US","TLE_LINE1":"1 48397U 21038AW  22008.28789832  .00001588  00000-0  12550-3 0  9992","BSTAR":"0.00012550000000","TIME_SYSTEM":"UTC","SEMIMAJOR_AXIS":"6925.358","GP_ID":"193461179","SITE":"AFETR","MEAN_MOTION":"15.06397079","PERIAPSIS":"545.973","NORAD_CAT_ID":"48397","TLE_LINE2":"2 48397  53.0556 331.4625 0001804  63.8148 296.3027 15.06397079 39215","DECAY_DATE":null,"CENTER_NAME":"EARTH","MEAN_MOTION_DDOT":"0.0000000000000","INCLINATION":"53.0556","OBJECT_TYPE":"PAYLOAD","MEAN_ELEMENT_THEORY":"SGP4"},{"ECCENTRICITY":"0.00019150","RA_OF_ASC_NODE":"331.1737","CLASSIFICATION_TYPE":"U","FILE":"3267276","OBJECT_NAME":"STARLINK-2588","MEAN_MOTION_DOT":"-0.00000421","REV_AT_EPOCH":"3922","LAUNCH_DATE":"2021-05-04","MEAN_ANOMALY":"298.4639","ELEMENT_SET_NO":"999","APOAPSIS":"548.563","EPHEMERIS_TYPE":"0","EPOCH":"2022-01-08T08:24:48.309696","OBJECT_ID":"2021-038AX","ARG_OF_PERICENTER":"61.6543","PERIOD":"95.593","RCS_SIZE":"LARGE","REF_FRAME":"TEME","SITE":"AFETR","GP_ID":"193461416","SEMIMAJOR_AXIS":"6925.372","MEAN_MOTION":"15.06392290","COUNTRY_CODE":"US","BSTAR":"-0.00000932430000","TLE_LINE1":"1 48398U 21038AX  22008.35055914 -.00000421  00000-0 -93243-5 0  9995","TIME_SYSTEM":"UTC","CENTER_NAME":"EARTH","DECAY_DATE":null,"OBJECT_TYPE":"PAYLOAD","MEAN_ELEMENT_THEORY":"SGP4","MEAN_MOTION_DDOT":"0.0000000000000","INCLINATION":"53.0567","PERIAPSIS":"545.911","NORAD_CAT_ID":"48398","TLE_LINE2":"2 48398  53.0567 331.1737 0001915  61.6543 298.4639 15.06392290 39220"},{"ARG_OF_PERICENTER":"63.8896","OBJECT_ID":"2021-038AY","REF_FRAME":"TEME","PERIOD":"95.592","RCS_SIZE":"LARGE","MEAN_ANOMALY":"296.2285","EPOCH":"2022-01-08T06:43:57.227808","APOAPSIS":"548.520","EPHEMERIS_TYPE":"0","ELEMENT_SET_NO":"999","LAUNCH_DATE":"2021-05-04","MEAN_MOTION_DOT":"0.00001879","REV_AT_EPOCH":"3920","RA_OF_ASC_NODE":"331.4972","ECCENTRICITY":"0.00018700","FILE":"3267276","OBJECT_NAME":"STARLINK-2587","CLASSIFICATION_TYPE":"U","PERIAPSIS":"545.930","TLE_LINE2":"2 48399  53.0556 331.4972 0001870  63.8896 296.2285 15.06396148 39205","NORAD_CAT_ID":"48399","DECAY_DATE":null,"CENTER_NAME":"EARTH","INCLINATION":"53.0556","MEAN_MOTION_DDOT":"0.0000000000000","OBJECT_TYPE":"PAYLOAD","MEAN_ELEMENT_THEORY":"SGP4","COUNTRY_CODE":"US","TIME_SYSTEM":"UTC","TLE_LINE1":"1 48399U 21038AY  22008.28052347  .00001879  00000-0  14503-3 0  9991","BSTAR":"0.00014503000000","SEMIMAJOR_AXIS":"6925.360","SITE":"AFETR","GP_ID":"193459677","MEAN_MOTION":"15.06396148"},{"EPHEMERIS_TYPE":"0","APOAPSIS":"548.424","ELEMENT_SET_NO":"999","EPOCH":"2022-01-08T14:36:21.050208","MEAN_ANOMALY":"295.3193","REF_FRAME":"TEME","RCS_SIZE":"LARGE","PERIOD":"95.592","OBJECT_ID":"2021-038AZ","ARG_OF_PERICENTER":"64.7974","FILE":"3267514","OBJECT_NAME":"STARLINK-2576","CLASSIFICATION_TYPE":"U","RA_OF_ASC_NODE":"330.0211","ECCENTRICITY":"0.00017260","LAUNCH_DATE":"2021-05-04","MEAN_MOTION_DOT":"0.00001603","REV_AT_EPOCH":"3804","OBJECT_TYPE":"PAYLOAD","MEAN_ELEMENT_THEORY":"SGP4","MEAN_MOTION_DDOT":"0.0000000000000","INCLINATION":"53.0573","CENTER_NAME":"EARTH","DECAY_DATE":null,"TLE_LINE2":"2 48400  53.0573 330.0211 0001726  64.7974 295.3193 15.06395209 38041","NORAD_CAT_ID":"48400","PERIAPSIS":"546.033","MEAN_MOTION":"15.06395209","SITE":"AFETR","GP_ID":"193490759","SEMIMAJOR_AXIS":"6925.363","TIME_SYSTEM":"UTC","TLE_LINE1":"1 48400U 21038AZ  22008.60857697  .00001603  00000-0  12650-3 0  9997","BSTAR":"0.00012650000000","COUNTRY_CODE":"US"},{"COUNTRY_CODE":"US","TLE_LINE1":"1 48401U 21038BA  22008.57813880  .00001531  00000-0  12171-3 0  9998","BSTAR":"0.00012171000000","TIME_SYSTEM":"UTC","GP_ID":"193460679","SITE":"AFETR","SEMIMAJOR_AXIS":"6925.363","MEAN_MOTION":"15.06395360","PERIAPSIS":"545.904","NORAD_CAT_ID":"48401","TLE_LINE2":"2 48401  53.0566 330.1553 0001911  62.9695 297.1489 15.06395360 38035","CENTER_NAME":"EARTH","DECAY_DATE":null,"OBJECT_TYPE":"PAYLOAD","MEAN_ELEMENT_THEORY":"SGP4","MEAN_MOTION_DDOT":"0.0000000000000","INCLINATION":"53.0566","REV_AT_EPOCH":"3803","MEAN_MOTION_DOT":"0.00001531","LAUNCH_DATE":"2021-05-04","ECCENTRICITY":"0.00019110","RA_OF_ASC_NODE":"330.1553","CLASSIFICATION_TYPE":"U","FILE":"3267276","OBJECT_NAME":"STARLINK-2571","OBJECT_ID":"2021-038BA","ARG_OF_PERICENTER":"62.9695","PERIOD":"95.592","RCS_SIZE":"LARGE","REF_FRAME":"TEME","MEAN_ANOMALY":"297.1489","ELEMENT_SET_NO":"999","EPHEMERIS_TYPE":"0","APOAPSIS":"548.551","EPOCH":"2022-01-08T13:52:31.192320"},{"CLASSIFICATION_TYPE":"U","FILE":"3267514","OBJECT_NAME":"STARLINK-2560","ECCENTRICITY":"0.00015730","RA_OF_ASC_NODE":"329.7436","MEAN_MOTION_DOT":"-0.00000049","REV_AT_EPOCH":"3805","LAUNCH_DATE":"2021-05-04","EPOCH":"2022-01-08T16:06:34.670304","ELEMENT_SET_NO":"999","EPHEMERIS_TYPE":"0","APOAPSIS":"548.325","MEAN_ANOMALY":"303.3102","RCS_SIZE":"LARGE","PERIOD":"95.593","REF_FRAME":"TEME","ARG_OF_PERICENTER":"56.8038","OBJECT_ID":"2021-038BB","MEAN_MOTION":"15.06392754","SEMIMAJOR_AXIS":"6925.371","SITE":"AFETR","GP_ID":"193491261","BSTAR":"0.00001559600000","TLE_LINE1":"1 48402U 21038BB  22008.67123461 -.00000049  00000-0  15596-4 0  9998","TIME_SYSTEM":"UTC","COUNTRY_CODE":"US","INCLINATION":"53.0555","MEAN_MOTION_DDOT":"0.0000000000000","MEAN_ELEMENT_THEORY":"SGP4","OBJECT_TYPE":"PAYLOAD","DECAY_DATE":null,"CENTER_NAME":"EARTH","NORAD_CAT_ID":"48402","TLE_LINE2":"2 48402  53.0555 329.7436 0001573  56.8038 303.3102 15.06392754 38053","PERIAPSIS":"546.146"},{"CENTER_NAME":"EARTH","DECAY_DATE":null,"MEAN_ELEMENT_THEORY":"SGP4","OBJECT_TYPE":"PAYLOAD","MEAN_MOTION_DDOT":"0.0000000000000","INCLINATION":"53.0559","PERIAPSIS":"545.949","TLE_LINE2":"2 48403  53.0559 330.0410 0001860  60.9643 299.1533 15.06392212 38040","NORAD_CAT_ID":"48403","GP_ID":"193490009","SITE":"AFETR","SEMIMAJOR_AXIS":"6925.372","MEAN_MOTION":"15.06392212","COUNTRY_CODE":"US","TIME_SYSTEM":"UTC","BSTAR":"0.00010249000000","TLE_LINE1":"1 48403U 21038BC  22008.60120571  .00001245  00000-0  10249-3 0  9998","MEAN_ANOMALY":"299.1533","APOAPSIS":"548.526","EPHEMERIS_TYPE":"0","ELEMENT_SET_NO":"999","EPOCH":"2022-01-08T14:25:44.173344","OBJECT_ID":"2021-038BC","ARG_OF_PERICENTER":"60.9643","REF_FRAME":"TEME","PERIOD":"95.593","RCS_SIZE":"LARGE","RA_OF_ASC_NODE":"330.0410","ECCENTRICITY":"0.00018600","FILE":"3267514","OBJECT_NAME":"STARLINK-2561","CLASSIFICATION_TYPE":"U","LAUNCH_DATE":"2021-05-04","MEAN_MOTION_DOT":"0.00001245","REV_AT_EPOCH":"3804"},{"LAUNCH_DATE":"2021-05-04","REV_AT_EPOCH":"3804","MEAN_MOTION_DOT":"0.00002153","FILE":"3267514","OBJECT_NAME":"STARLINK-2593","CLASSIFICATION_TYPE":"U","RA_OF_ASC_NODE":"330.0736","ECCENTRICITY":"0.00019680","REF_FRAME":"TEME","PERIOD":"95.592","RCS_SIZE":"LARGE","OBJECT_ID":"2021-038BD","ARG_OF_PERICENTER":"65.2299","APOAPSIS":"548.584","EPHEMERIS_TYPE":"0","ELEMENT_SET_NO":"999","EPOCH":"2022-01-08T14:20:25.370304","MEAN_ANOMALY":"294.8894","TIME_SYSTEM":"UTC","TLE_LINE1":"1 48404U 21038BD  22008.59751586  .00002153  00000-0  16344-3 0  9994","BSTAR":"0.00016344000000","COUNTRY_CODE":"US","MEAN_MOTION":"15.06397575","SITE":"AFETR","GP_ID":"193490259","SEMIMAJOR_AXIS":"6925.356","TLE_LINE2":"2 48404  53.0557 330.0736 0001968  65.2299 294.8894 15.06397575 38043","NORAD_CAT_ID":"48404","PERIAPSIS":"545.858","OBJECT_TYPE":"PAYLOAD","MEAN_ELEMENT_THEORY":"SGP4","MEAN_MOTION_DDOT":"0.0000000000000","INCLINATION":"53.0557","CENTER_NAME":"EARTH","DECAY_DATE":null},{"PERIAPSIS":"546.174","NORAD_CAT_ID":"48405","TLE_LINE2":"2 48405  53.0560 330.0913 0001526  64.4691 295.6455 15.06394318 38046","DECAY_DATE":null,"CENTER_NAME":"EARTH","MEAN_MOTION_DDOT":"0.0000000000000","INCLINATION":"53.0560","OBJECT_TYPE":"PAYLOAD","MEAN_ELEMENT_THEORY":"SGP4","COUNTRY_CODE":"US","TLE_LINE1":"1 48405U 21038BE  22008.59383202 -.00000307  00000-0 -17435-5 0  9996","BSTAR":"-0.00000174350000","TIME_SYSTEM":"UTC","SEMIMAJOR_AXIS":"6925.366","SITE":"AFETR","GP_ID":"193461180","MEAN_MOTION":"15.06394318","ARG_OF_PERICENTER":"64.4691","OBJECT_ID":"2021-038BE","PERIOD":"95.593","RCS_SIZE":"LARGE","REF_FRAME":"TEME","MEAN_ANOMALY":"295.6455","EPOCH":"2022-01-08T14:15:07.086528","ELEMENT_SET_NO":"999","EPHEMERIS_TYPE":"0","APOAPSIS":"548.288","MEAN_MOTION_DOT":"-0.00000307","REV_AT_EPOCH":"3804","LAUNCH_DATE":"2021-05-04","ECCENTRICITY":"0.00015260","RA_OF_ASC_NODE":"330.0913","CLASSIFICATION_TYPE":"U","OBJECT_NAME":"STARLINK-2570","FILE":"3267276"},{"TIME_SYSTEM":"UTC","BSTAR":"0.00011949000000","TLE_LINE1":"1 48406U 21038BF  22008.65648699  .00001499  00000-0  11949-3 0  9991","COUNTRY_CODE":"US","MEAN_MOTION":"15.06396846","SEMIMAJOR_AXIS":"6925.358","SITE":"AFETR","GP_ID":"193491762","TLE_LINE2":"2 48406  53.0567 329.7971 0001711  62.7702 297.3461 15.06396846 38058","NORAD_CAT_ID":"48406","PERIAPSIS":"546.038","INCLINATION":"53.0567","MEAN_MOTION_DDOT":"0.0000000000000","OBJECT_TYPE":"PAYLOAD","MEAN_ELEMENT_THEORY":"SGP4","DECAY_DATE":null,"CENTER_NAME":"EARTH","LAUNCH_DATE":"2021-05-04","REV_AT_EPOCH":"3805","MEAN_MOTION_DOT":"0.00001499","FILE":"3267514","OBJECT_NAME":"STARLINK-2568","CLASSIFICATION_TYPE":"U","RA_OF_ASC_NODE":"329.7971","ECCENTRICITY":"0.00017110","REF_FRAME":"TEME","PERIOD":"95.592","RCS_SIZE":"LARGE","ARG_OF_PERICENTER":"62.7702","OBJECT_ID":"2021-038BF","EPOCH":"2022-01-08T15:45:20.475936","EPHEMERIS_TYPE":"0","APOAPSIS":"548.408","ELEMENT_SET_NO":"999","MEAN_ANOMALY":"297.3461"}];
